[{"OBJECT_NAME":"STARLINK-2581","OBJECT_ID":"2021-038BM","EPOCH":"2026-03-09T20:21:32.588640","MEAN_MOTION":15.06396675,"ECCENTRICITY":0.00014731,"INCLINATION":53.054,"RA_OF_ASC_NODE":291.3408,"ARG_OF_PERICENTER":74.8336,"MEAN_ANOMALY":285.2816,"EPHEMERIS_TYPE":0,"CLASSIFICATION_TYPE":"U","NORAD_CAT_ID":48412,"ELEMENT_SET_NO":999,"REV_AT_EPOCH":26803,"BSTAR":5.2922796e-5,"MEAN_MOTION_DOT":5.07e-6,"MEAN_MOTION_DDOT":0},{"OBJECT_NAME":"SEDNA-1","OBJECT_ID":"2024-149DS","EPOCH":"2026-03-09T18:22:48.434304","MEAN_MOTION":15.05597965,"ECCENTRICITY":0.00083444,"INCLINATION":97.6673,"RA_OF_ASC_NODE":149.7617,"ARG_OF_PERICENTER":330.8481,"MEAN_ANOMALY":29.2278,"EPHEMERIS_TYPE":0,"CLASSIFICATION_TYPE":"U","NORAD_CAT_ID":60580,"ELEMENT_SET_NO":999,"REV_AT_EPOCH":8542,"BSTAR":0.00060833619,"MEAN_MOTION_DOT":8.721e-5,"MEAN_MOTION_DDOT":0}]
