STARLINK-2581           
1 48412U 21038BM  26068.84829384  .00000507  00000+0  52923-4 0  9997
2 48412  53.0540 291.3408 0001473  74.8336 285.2816 15.06396675268030
SEDNA-1                 
1 60580U 24149DS  26068.76583836  .00008721  00000+0  60834-3 0  9998
2 60580  97.6673 149.7617 0008344 330.8481  29.2278 15.05597965 85421
